[{"OBJECT_NAME":"STARLINK-4753","OBJECT_ID":"2022-114AD","EPOCH":"2026-03-09T21:40:04.933632","MEAN_MOTION":15.08835282,"ECCENTRICITY":0.0001585,"INCLINATION":53.2183,"RA_OF_ASC_NODE":293.1946,"ARG_OF_PERICENTER":96.8824,"MEAN_ANOMALY":263.2348,"EPHEMERIS_TYPE":0,"CLASSIFICATION_TYPE":"U","NORAD_CAT_ID":53845,"ELEMENT_SET_NO":999,"REV_AT_EPOCH":19300,"BSTAR":-2.6881632e-5,"MEAN_MOTION_DOT":-7.16e-6,"MEAN_MOTION_DDOT":0},{"OBJECT_NAME":"NOAA 17 DEB","OBJECT_ID":"2002-032W","EPOCH":"2026-03-09T23:34:50.358720","MEAN_MOTION":15.06684432,"ECCENTRICITY":0.0012716,"INCLINATION":98.7039,"RA_OF_ASC_NODE":76.0065,"ARG_OF_PERICENTER":104.6864,"MEAN_ANOMALY":255.577,"EPHEMERIS_TYPE":0,"CLASSIFICATION_TYPE":"U","NORAD_CAT_ID":48181,"ELEMENT_SET_NO":999,"REV_AT_EPOCH":26088,"BSTAR":0.0078736038,"MEAN_MOTION_DOT":0.00118919,"MEAN_MOTION_DDOT":0}]
